NORAD_CAT_ID,OBJECT_NAME,OBJECT_TYPE,EPOCH,MEAN_MOTION,ECCENTRICITY,INCLINATION,RA_OF_ASC_NODE,ARG_OF_PERICENTER,MEAN_ANOMALY,BSTAR,MEAN_MOTION_DOT,MEAN_MOTION_DDOT,TLE_LINE0,TLE_LINE1,TLE_LINE2,SEMIMAJOR_AXIS,PERIOD,APOGEE,PERIGEE,DECAYED
53927.0,STARLINK-5008,PAYLOAD,2023-12-07 04:22:25,15.08841134,0.0001237,53.2197,45.9892,96.7825,263.3308,-1.3965e-05,-5.1e-06,0.0,0 STARLINK-5008,1 53927U 22119AT  23341.18224001 -.00000510  00000-0 -13965-4 0  9998,2 53927  53.2197  45.9892 0001237  96.7825 263.3308 15.08841134 67151,6917.877,95.437,540.598,538.886,0.0
53927.0,STARLINK-5008,PAYLOAD,2023-12-07 10:43:57,15.08847527,0.0001367,53.2189,44.8,80.6234,279.4913,-4.8288e-05,-1.057e-05,0.0,0 STARLINK-5008,1 53927U 22119AT  23341.44719734 -.00001057  00000-0 -48288-4 0  9992,2 53927  53.2189  44.8000 0001367  80.6234 279.4913 15.08847527 67614,6917.857,95.437,540.668,538.777,0.0
53927.0,STARLINK-5008,PAYLOAD,2023-12-08 10:34:44,15.08838506,0.0001445,53.2183,40.3403,75.9877,284.1276,3.2529e-05,2.3e-06,0.0,0 STARLINK-5008,1 53927U 22119AT  23342.44079858  .00000230  00000-0  32529-4 0  9990,2 53927  53.2183  40.3403 0001445  75.9877 284.1276 15.08838506 67345,6917.885,95.438,540.75,538.75,0.0
53927.0,STARLINK-5008,PAYLOAD,2023-12-09 10:25:31,15.08841008,0.0001441,53.2187,35.8794,97.0669,263.0487,5.0435e-05,5.15e-06,0.0,0 STARLINK-5008,1 53927U 22119AT  23343.43439531  .00000515  00000-0  50435-4 0  9990,2 53927  53.2187  35.8794 0001441  97.0669 263.0487 15.08841008 67915,6917.877,95.437,540.739,538.745,0.0
53927.0,STARLINK-5008,PAYLOAD,2023-12-11 10:07:06,15.08845454,0.000163,53.2178,26.9565,103.0445,257.0729,-3.2255e-05,-8.01e-06,0.0,0 STARLINK-5008,1 53927U 22119AT  23345.42159725 -.00000801  00000-0 -32255-4 0  9995,2 53927  53.2178  26.9565 0001630 103.0445 257.0729 15.08845454 67799,6917.864,95.437,540.856,538.601,0.0
53927.0,STARLINK-5008,PAYLOAD,2023-12-12 09:57:52,15.088033,0.0001566,53.2182,22.4961,95.5036,264.6135,0.00036751,5.56e-05,0.0,0 STARLINK-5008,1 53927U 22119AT  23346.41519422  .00005560  00000-0  36751-3 0  9998,2 53927  53.2182  22.4961 0001566  95.5036 264.6135 15.08803300 67940,6917.993,95.44,540.941,538.774,0.0
53927.0,STARLINK-5008,PAYLOAD,2023-12-13 09:48:40,15.08811502,0.0001621,53.2183,18.0337,83.1426,276.975,0.00045778,6.999e-05,0.0,0 STARLINK-5008,1 53927U 22119AT  23347.40880552  .00006999  00000-0  45778-3 0  9999,2 53927  53.2183  18.0337 0001621  83.1426 276.9750 15.08811502 68513,6917.967,95.439,540.954,538.711,0.0
53927.0,STARLINK-5008,PAYLOAD,2023-12-14 09:39:27,15.08841732,0.0001747,53.2186,13.5765,70.6237,289.4944,7.95e-05,9.77e-06,0.0,0 STARLINK-5008,1 53927U 22119AT  23348.40240258  .00000977  00000-0  79500-4 0  9994,2 53927  53.2186  13.5765 0001747  70.6237 289.4944 15.08841732 68243,6917.875,95.437,540.949,538.532,0.0
53927.0,STARLINK-5008,PAYLOAD,2023-12-15 07:54:51,15.0884065,0.0002049,53.2191,9.4145,64.1536,295.9667,7.0275e-06,-1.76e-06,0.0,0 STARLINK-5008,1 53927U 22119AT  23349.32976646 -.00000176  00000-0  70275-5 0  9996,2 53927  53.2191   9.4145 0002049  64.1536 295.9667 15.08840650 68388,6917.878,95.438,541.161,538.326,0.0
53927.0,STARLINK-5008,PAYLOAD,2023-12-16 07:45:38,15.08839377,0.0001595,53.2175,4.9585,84.7899,275.3275,1.7475e-06,-2.6e-06,0.0,0 STARLINK-5008,1 53927U 22119AT  23350.32336619 -.00000260  00000-0  17475-5 0  9995,2 53927  53.2175   4.9585 0001595  84.7899 275.3275 15.08839377 68957,6917.882,95.438,540.851,538.644,0.0
53927.0,STARLINK-5008,PAYLOAD,2023-12-17 07:36:25,15.08836891,0.0001675,53.2184,0.4924,108.1113,252.0061,3.0303e-05,1.94e-06,0.0,0 STARLINK-5008,1 53927U 22119AT  23351.31696663  .00000194  00000-0  30303-4 0  9992,2 53927  53.2184   0.4924 0001675 108.1113 252.0061 15.08836891 68687,6917.89,95.438,540.914,538.596,0.0
53927.0,STARLINK-5008,PAYLOAD,2023-12-18 05:51:49,15.08844045,0.0001582,53.2179,356.3287,100.3846,259.7324,0.00010078,1.316e-05,0.0,0 STARLINK-5008,1 53927U 22119AT  23352.24432079  .00001316  00000-0  10078-3 0  9997,2 53927  53.2179 356.3287 0001582 100.3846 259.7324 15.08844045 68822,6917.868,95.437,540.827,538.639,0.0
53927.0,STARLINK-5008,PAYLOAD,2023-12-19 04:07:14,15.08832283,0.0001182,53.2159,352.1589,99.4863,260.6262,-5.9214e-05,-1.23e-05,0.0,0 STARLINK-5008,1 53927U 22119AT  23353.17169519 -.00001230  00000-0 -59214-4 0  9999,2 53927  53.2159 352.1589 0001182  99.4863 260.6262 15.08832283 68960,6917.904,95.438,540.587,538.951,0.0
53927.0,STARLINK-5008,PAYLOAD,2023-12-19 07:18:00,15.08833276,0.0001296,53.2172,351.5696,109.6999,250.4133,-3.3575e-05,-8.22e-06,0.0,0 STARLINK-5008,1 53927U 22119AT  23353.30417456 -.00000822  00000-0 -33575-4 0  9998,2 53927  53.2172 351.5696 0001296 109.6999 250.4133 15.08833276 69404,6917.901,95.438,540.663,538.869,0.0
53927.0,STARLINK-5008,PAYLOAD,2023-12-20 07:08:47,15.08843549,0.0001274,53.2172,347.1075,95.7748,264.339,-5.256e-05,-1.124e-05,0.0,0 STARLINK-5008,1 53927U 22119AT  23354.29777425 -.00001124  00000-0 -52560-4 0  9993,2 53927  53.2172 347.1075 0001274  95.7748 264.3390 15.08843549 69132,6917.87,95.437,540.616,538.853,0.0
53927.0,STARLINK-5008,PAYLOAD,2023-12-21 06:59:34,15.08845729,0.0001341,53.2187,342.648,81.3527,278.7617,0.00026749,3.972e-05,0.0,0 STARLINK-5008,1 53927U 22119AT  23355.29136666  .00003972  00000-0  26749-3 0  9990,2 53927  53.2187 342.6480 0001341  81.3527 278.7617 15.08845729 69288,6917.863,95.437,540.656,538.8,0.0
53927.0,STARLINK-5008,PAYLOAD,2023-12-22 03:39:36,15.08837516,0.0001968,53.2192,338.7791,61.4339,298.6851,4.1882e-05,3.78e-06,0.0,0 STARLINK-5008,1 53927U 22119AT  23356.15250221  .00000378  00000-0  41882-4 0  9993,2 53927  53.2192 338.7791 0001968  61.4339 298.6851 15.08837516 69411,6917.888,95.438,541.114,538.392,0.0
53927.0,STARLINK-5008,PAYLOAD,2023-12-22 06:50:21,15.08845097,0.0001864,53.2192,338.1884,69.2245,290.8947,0.00011805,1.591e-05,0.0,0 STARLINK-5008,1 53927U 22119AT  23356.28497656  .00001591  00000-0  11805-3 0  9991,2 53927  53.2192 338.1884 0001864  69.2245 290.8947 15.08845097 69430,6917.865,95.437,541.019,538.44,0.0
53927.0,STARLINK-5008,PAYLOAD,2023-12-23 03:30:23,15.08845715,0.0001941,53.2193,334.3262,74.624,285.4967,-8.4455e-05,-1.632e-05,0.0,0 STARLINK-5008,1 53927U 22119AT  23357.14610212 -.00001632  00000-0 -84455-4 0  9992,2 53927  53.2193 334.3262 0001941  74.6240 285.4967 15.08845715 69563,6917.863,95.437,541.071,538.385,0.0
53927.0,STARLINK-5008,PAYLOAD,2023-12-23 08:16:32,15.08849329,0.000211,53.2201,333.4233,68.7611,291.3607,-1.5784e-05,-5.4e-06,0.0,0 STARLINK-5008,1 53927U 22119AT  23357.34481556 -.00000540  00000-0 -15784-4 0  9997,2 53927  53.2201 333.4233 0002110  68.7611 291.3607 15.08849329 70010,6917.852,95.437,541.177,538.257,0.0
53927.0,STARLINK-5008,PAYLOAD,2023-12-24 08:07:18,15.08849438,0.0002129,53.219,328.9628,111.8854,248.2365,0.00016811,2.389e-05,0.0,0 STARLINK-5008,1 53927U 22119AT  23358.33841418  .00002389  00000-0  16811-3 0  9996,2 53927  53.2190 328.9628 0002129 111.8854 248.2365 15.08849438 69744,6917.852,95.437,541.189,538.244,0.0
53927.0,STARLINK-5008,PAYLOAD,2023-12-24 22:25:47,15.08839308,0.0002183,53.2189,326.288,109.6703,250.4524,4.4667e-05,4.23e-06,0.0,0 STARLINK-5008,1 53927U 22119AT  23358.93458030  .00000423  00000-0  44667-4 0  9994,2 53927  53.2189 326.2880 0002183 109.6703 250.4524 15.08839308 70256,6917.883,95.438,541.258,538.237,0.0
53927.0,STARLINK-5008,PAYLOAD,2023-12-25 03:11:57,15.08833835,0.0001983,53.2176,325.3953,114.3384,245.7816,-5.1089e-05,-1.101e-05,0.0,0 STARLINK-5008,1 53927U 22119AT  23359.13330268 -.00001101  00000-0 -51089-4 0  9991,2 53927  53.2176 325.3953 0001983 114.3384 245.7816 15.08833835 69863,6917.899,95.438,541.136,538.392,0.0
53927.0,STARLINK-5008,PAYLOAD,2023-12-25 04:47:21,15.08832187,0.0001565,53.2195,325.1037,99.5206,260.5963,-7.0762e-05,-1.414e-05,0.0,0 STARLINK-5008,1 53927U 22119AT  23359.19955030 -.00001414  00000-0 -70762-4 0  9993,2 53927  53.2195 325.1037 0001565  99.5206 260.5963 15.08832187 69876,6917.904,95.438,540.852,538.687,0.0
53927.0,STARLINK-5008,PAYLOAD,2023-12-25 20:41:12,15.08828599,0.0001539,53.217,322.1282,96.6467,263.47,4.7336e-07,-2.8e-06,0.0,0 STARLINK-5008,1 53927U 22119AT  23359.86195451 -.00000280  00000-0  47336-6 0  9992,2 53927  53.2170 322.1282 0001539  96.6467 263.4700 15.08828599 70398,6917.915,95.438,540.845,538.716,0.0
53927.0,STARLINK-5008,PAYLOAD,2023-12-26 03:02:44,15.08842489,0.000195,53.2178,320.947,101.1608,258.9603,1.3914e-05,-6.7e-07,0.0,0 STARLINK-5008,1 53927U 22119AT  23360.12690715 -.00000067  00000-0  13914-4 0  9992,2 53927  53.2178 320.9470 0001950 101.1608 258.9603 15.08842489 70011,6917.873,95.437,541.087,538.389,0.0
53927.0,STARLINK-5008,PAYLOAD,2023-12-26 07:48:53,15.08855686,0.0001726,53.2166,320.0485,101.0093,259.1093,0.00022811,3.346e-05,0.0,0 STARLINK-5008,1 53927U 22119AT  23360.32561656  .00003346  00000-0  22811-3 0  9992,2 53927  53.2166 320.0485 0001726 101.0093 259.1093 15.08855686 70045,6917.832,95.437,540.891,538.503,0.0
53927.0,STARLINK-5008,PAYLOAD,2023-12-26 20:31:59,15.08836944,0.0002278,53.2169,317.662,132.6756,227.4429,0.00010854,1.439e-05,0.0,0 STARLINK-5008,1 53927U 22119AT  23360.85554614  .00001439  00000-0  10854-3 0  9991,2 53927  53.2169 317.6620 0002278 132.6756 227.4429 15.08836944 70126,6917.89,95.438,541.331,538.179,0.0
53927.0,STARLINK-5008,PAYLOAD,2023-12-27 02:53:31,15.08841366,0.0002283,53.2171,316.4779,120.7873,239.3344,0.00023034,3.38e-05,0.0,0 STARLINK-5008,1 53927U 22119AT  23361.12050394  .00003380  00000-0  23034-3 0  9999,2 53927  53.2171 316.4779 0002283 120.7873 239.3344 15.08841366 70587,6917.876,95.437,541.321,538.162,0.0
53927.0,STARLINK-5008,PAYLOAD,2023-12-28 05:55:04,15.08846478,0.0001868,53.2171,311.4261,86.6829,273.4377,2.9162e-05,1.76e-06,0.0,0 STARLINK-5008,1 53927U 22119AT  23362.24658274  .00000176  00000-0  29162-4 0  9993,2 53927  53.2171 311.4261 0001868  86.6829 273.4377 15.08846478 70334,6917.861,95.437,541.018,538.433,0.0
